{
  "type": "FeatureCollection",
  "features": [
    {
      "type": "Feature",
      "properties": {
        "norad_id": 31307,
        "name": "GALAXY 17 (G-17)",
        "group": "intelsat",
        "lat": 1.4282148168289392,
        "lon": -132.45188299964107,
        "alt_km": 35764.89928638962,
        "timestamp": "2025-12-26T14:28:47.356771+00:00",
        "meta_object_name": "GALAXY 17 (G-17)",
        "meta_object_id": "2007-016B",
        "meta_epoch": "2025-12-26T06:09:02.888352",
        "meta_mean_motion": 1.00271899,
        "meta_eccentricity": 0.00056352,
        "meta_inclination": 2.532,
        "meta_ra_of_asc_node": 82.1295,
        "meta_arg_of_pericenter": 173.5146,
        "meta_mean_anomaly": 206.6352,
        "meta_ephemeris_type": 0,
        "meta_classification_type": "U",
        "meta_norad_cat_id": 31307,
        "meta_element_set_no": 999,
        "meta_rev_at_epoch": 6807,
        "meta_bstar": 0,
        "meta_mean_motion_dot": -1.85e-06,
        "meta_mean_motion_ddot": 0,
        "tle_line1": "1 31307U 07016B   25360.25628343 -.00000185  00000+0  00000+0 0  9990",
        "tle_line2": "2 31307   2.5320  82.1295 0005635 173.5146 206.6352  1.00271899 68073"
      },
      "geometry": {
        "type": "Point",
        "coordinates": [
          -132.45188299964107,
          1.4282148168289392
        ]
      }
    },
    {
      "type": "Feature",
      "properties": {
        "norad_id": 31862,
        "name": "DIRECTV 10",
        "group": "intelsat",
        "lat": -8.453024048840577e-05,
        "lon": -150.21423237771484,
        "alt_km": 35780.75522243328,
        "timestamp": "2025-12-26T14:28:47.356789+00:00",
        "meta_object_name": "DIRECTV 10",
        "meta_object_id": "2007-032A",
        "meta_epoch": "2025-12-25T09:09:15.831072",
        "meta_mean_motion": 1.00280696,
        "meta_eccentricity": 7.66e-05,
        "meta_inclination": 0.0126,
        "meta_ra_of_asc_node": 126.575,
        "meta_arg_of_pericenter": 111.4706,
        "meta_mean_anomaly": 250.6263,
        "meta_ephemeris_type": 0,
        "meta_classification_type": "U",
        "meta_norad_cat_id": 31862,
        "meta_element_set_no": 999,
        "meta_rev_at_epoch": 4385,
        "meta_bstar": 0,
        "meta_mean_motion_dot": -8.3e-07,
        "meta_mean_motion_ddot": 0,
        "tle_line1": "1 31862U 07032A   25359.38143323 -.00000083  00000+0  00000+0 0  9993",
        "tle_line2": "2 31862   0.0126 126.5750 0000766 111.4706 250.6263  1.00280696 43852"
      },
      "geometry": {
        "type": "Point",
        "coordinates": [
          -150.21423237771484,
          -8.453024048840577e-05
        ]
      }
    },
    {
      "type": "Feature",
      "properties": {
        "norad_id": 32253,
        "name": "INTELSAT 11 (IS-11)",
        "group": "intelsat",
        "lat": 1.8669705289640877,
        "lon": 117.20032167262204,
        "alt_km": 36157.274860193495,
        "timestamp": "2025-12-26T14:28:47.356801+00:00",
        "meta_object_name": "INTELSAT 11 (IS-11)",
        "meta_object_id": "2007-044B",
        "meta_epoch": "2025-12-26T05:07:38.649792",
        "meta_mean_motion": 0.99053068,
        "meta_eccentricity": 0.00086433,
        "meta_inclination": 3.1133,
        "meta_ra_of_asc_node": 80.8253,
        "meta_arg_of_pericenter": 171.7827,
        "meta_mean_anomaly": 85.7476,
        "meta_ephemeris_type": 0,
        "meta_classification_type": "U",
        "meta_norad_cat_id": 32253,
        "meta_element_set_no": 999,
        "meta_rev_at_epoch": 6673,
        "meta_bstar": 0,
        "meta_mean_motion_dot": -2.11e-06,
        "meta_mean_motion_ddot": 0,
        "tle_line1": "1 32253U 07044B   25360.21364178 -.00000211  00000+0  00000+0 0  9991",
        "tle_line2": "2 32253   3.1133  80.8253 0008643 171.7827  85.7476  0.99053068 66737"
      },
      "geometry": {
        "type": "Point",
        "coordinates": [
          117.20032167262204,
          1.8669705289640877
        ]
      }
    },
    {
      "type": "Feature",
      "properties": {
        "norad_id": 32388,
        "name": "HORIZONS-2",
        "group": "intelsat",
        "lat": 0.8675809187360134,
        "lon": -121.29417956011996,
        "alt_km": 35771.39744306287,
        "timestamp": "2025-12-26T14:28:47.356813+00:00",
        "meta_object_name": "HORIZONS-2",
        "meta_object_id": "2007-063B",
        "meta_epoch": "2025-12-26T06:14:53.168640",
        "meta_mean_motion": 1.0026905,
        "meta_eccentricity": 0.00048408,
        "meta_inclination": 2.1547,
        "meta_ra_of_asc_node": 82.8127,
        "meta_arg_of_pericenter": 197.3042,
        "meta_mean_anomaly": 194.8048,
        "meta_ephemeris_type": 0,
        "meta_classification_type": "U",
        "meta_norad_cat_id": 32388,
        "meta_element_set_no": 999,
        "meta_rev_at_epoch": 6608,
        "meta_bstar": 0,
        "meta_mean_motion_dot": -2.32e-06,
        "meta_mean_motion_ddot": 0,
        "tle_line1": "1 32388U 07063B   25360.26033760 -.00000232  00000+0  00000+0 0  9999",
        "tle_line2": "2 32388   2.1547  82.8127 0004840 197.3042 194.8048  1.00269050 66082"
      },
      "geometry": {
        "type": "Point",
        "coordinates": [
          -121.29417956011996,
          0.8675809187360134
        ]
      }
    },
    {
      "type": "Feature",
      "properties": {
        "norad_id": 32729,
        "name": "DIRECTV 11",
        "group": "intelsat",
        "lat": -0.004102821651049922,
        "lon": -146.73070461733755,
        "alt_km": 35784.89702250504,
        "timestamp": "2025-12-26T14:28:47.356825+00:00",
        "meta_object_name": "DIRECTV 11",
        "meta_object_id": "2008-013A",
        "meta_epoch": "2025-12-24T22:53:59.758368",
        "meta_mean_motion": 1.00260442,
        "meta_eccentricity": 0.0001047,
        "meta_inclination": 0.0475,
        "meta_ra_of_asc_node": 199.7105,
        "meta_arg_of_pericenter": 11.4593,
        "meta_mean_anomaly": 126.8496,
        "meta_ephemeris_type": 0,
        "meta_classification_type": "U",
        "meta_norad_cat_id": 32729,
        "meta_element_set_no": 999,
        "meta_rev_at_epoch": 4384,
        "meta_bstar": 0,
        "meta_mean_motion_dot": -1.03e-06,
        "meta_mean_motion_ddot": 0,
        "tle_line1": "1 32729U 08013A   25358.95416387 -.00000103  00000+0  00000+0 0  9994",
        "tle_line2": "2 32729   0.0475 199.7105 0001047  11.4593 126.8496  1.00260442 43842"
      },
      "geometry": {
        "type": "Point",
        "coordinates": [
          -146.73070461733755,
          -0.004102821651049922
        ]
      }
    },
    {
      "type": "Feature",
      "properties": {
        "norad_id": 32951,
        "name": "GALAXY 18 (G-18)",
        "group": "intelsat",
        "lat": -0.006566951255530311,
        "lon": -170.50250389660846,
        "alt_km": 35786.78264182423,
        "timestamp": "2025-12-26T14:28:47.356837+00:00",
        "meta_object_name": "GALAXY 18 (G-18)",
        "meta_object_id": "2008-024A",
        "meta_epoch": "2025-12-26T05:48:41.061888",
        "meta_mean_motion": 1.00271927,
        "meta_eccentricity": 0.000322,
        "meta_inclination": 0.0165,
        "meta_ra_of_asc_node": 352.4727,
        "meta_arg_of_pericenter": 290.2887,
        "meta_mean_anomaly": 136.3978,
        "meta_ephemeris_type": 0,
        "meta_classification_type": "U",
        "meta_norad_cat_id": 32951,
        "meta_element_set_no": 999,
        "meta_rev_at_epoch": 4411,
        "meta_bstar": 0,
        "meta_mean_motion_dot": 4.7e-07,
        "meta_mean_motion_ddot": 0,
        "tle_line1": "1 32951U 08024A   25360.24214192  .00000047  00000+0  00000+0 0  9994",
        "tle_line2": "2 32951   0.0165 352.4727 0003220 290.2887 136.3978  1.00271927 44113"
      },
      "geometry": {
        "type": "Point",
        "coordinates": [
          -170.50250389660846,
          -0.006566951255530311
        ]
      }
    },
    {
      "type": "Feature",
      "properties": {
        "norad_id": 33153,
        "name": "INTELSAT 25 (IS-25)",
        "group": "intelsat",
        "lat": -0.7381901524601512,
        "lon": -78.96113939956167,
        "alt_km": 35765.49909030231,
        "timestamp": "2025-12-26T14:28:47.356849+00:00",
        "meta_object_name": "INTELSAT 25 (IS-25)",
        "meta_object_id": "2008-034A",
        "meta_epoch": "2025-12-26T00:24:38.640960",
        "meta_mean_motion": 1.00271587,
        "meta_eccentricity": 0.0004961,
        "meta_inclination": 2.2599,
        "meta_ra_of_asc_node": 82.5049,
        "meta_arg_of_pericenter": 190.2408,
        "meta_mean_anomaly": 156.6895,
        "meta_ephemeris_type": 0,
        "meta_classification_type": "U",
        "meta_norad_cat_id": 33153,
        "meta_element_set_no": 999,
        "meta_rev_at_epoch": 6395,
        "meta_bstar": 0,
        "meta_mean_motion_dot": -2.03e-06,
        "meta_mean_motion_ddot": 0,
        "tle_line1": "1 33153U 08034A   25360.01711390 -.00000203  00000+0  00000+0 0  9992",
        "tle_line2": "2 33153   2.2599  82.5049 0004961 190.2408 156.6895  1.00271587 63950"
      },
      "geometry": {
        "type": "Point",
        "coordinates": [
          -78.96113939956167,
          -0.7381901524601512
        ]
      }
    }
  ]
}